[{"OBJECT_NAME":"STARLINK-31567","OBJECT_ID":"2024-045X","EPOCH":"2026-03-09T10:21:09.345024","MEAN_MOTION":15.27599181,"ECCENTRICITY":7.911e-5,"INCLINATION":43.0003,"RA_OF_ASC_NODE":93.8497,"ARG_OF_PERICENTER":244.6072,"MEAN_ANOMALY":115.4698,"EPHEMERIS_TYPE":0,"CLASSIFICATION_TYPE":"U","NORAD_CAT_ID":59199,"ELEMENT_SET_NO":999,"REV_AT_EPOCH":11312,"BSTAR":-0.00018394192,"MEAN_MOTION_DOT":-5.323e-5,"MEAN_MOTION_DDOT":0},{"OBJECT_NAME":"CZ-6A DEB","OBJECT_ID":"2022-151TQ","EPOCH":"2026-03-09T06:57:26.684352","MEAN_MOTION":15.22919125,"ECCENTRICITY":0.00409545,"INCLINATION":98.8216,"RA_OF_ASC_NODE":191.4692,"ARG_OF_PERICENTER":160.8215,"MEAN_ANOMALY":199.457,"EPHEMERIS_TYPE":0,"CLASSIFICATION_TYPE":"U","NORAD_CAT_ID":54975,"ELEMENT_SET_NO":999,"REV_AT_EPOCH":17711,"BSTAR":0.0066825196,"MEAN_MOTION_DOT":0.00163663,"MEAN_MOTION_DDOT":0}]
